[{"OBJECT_NAME":"GNOMES-5","OBJECT_ID":"2024-149DL","EPOCH":"2026-03-09T22:53:01.372704","MEAN_MOTION":15.00280005,"ECCENTRICITY":0.00076217,"INCLINATION":97.6857,"RA_OF_ASC_NODE":148.0235,"ARG_OF_PERICENTER":89.6268,"MEAN_ANOMALY":270.5829,"EPHEMERIS_TYPE":0,"CLASSIFICATION_TYPE":"U","NORAD_CAT_ID":60574,"ELEMENT_SET_NO":999,"REV_AT_EPOCH":8527,"BSTAR":0.00047414566,"MEAN_MOTION_DOT":5.885e-5,"MEAN_MOTION_DDOT":0},{"OBJECT_NAME":"STARLINK-36240","OBJECT_ID":"2025-298B","EPOCH":"2026-03-09T22:38:13.077024","MEAN_MOTION":14.9914115,"ECCENTRICITY":0.00027696,"INCLINATION":70.0016,"RA_OF_ASC_NODE":13.8861,"ARG_OF_PERICENTER":258.7048,"MEAN_ANOMALY":101.38,"EPHEMERIS_TYPE":0,"CLASSIFICATION_TYPE":"U","NORAD_CAT_ID":67076,"ELEMENT_SET_NO":999,"REV_AT_EPOCH":1325,"BSTAR":0.00087635231,"MEAN_MOTION_DOT":0.00010601,"MEAN_MOTION_DDOT":0}]
